{
  "type": "FeatureCollection",
  "features": [
    {
      "type": "Feature",
      "properties": {
        "norad_id": 24946,
        "name": "IRIDIUM 33",
        "group": "iridium-33-debris",
        "lat": -68.37679461844448,
        "lon": -106.24037281771521,
        "alt_km": 780.9896444697715,
        "timestamp": "2025-12-21T09:37:23.039418+00:00",
        "meta_object_name": "IRIDIUM 33",
        "meta_object_id": "1997-051C",
        "meta_epoch": "2025-12-21T03:26:52.541088",
        "meta_mean_motion": 14.35042678,
        "meta_eccentricity": 0.0008038,
        "meta_inclination": 86.3863,
        "meta_ra_of_asc_node": 64.6941,
        "meta_arg_of_pericenter": 172.3599,
        "meta_mean_anomaly": 187.7721,
        "meta_ephemeris_type": 0,
        "meta_classification_type": "U",
        "meta_norad_cat_id": 24946,
        "meta_element_set_no": 999,
        "meta_rev_at_epoch": 47955,
        "meta_bstar": 8.2654e-05,
        "meta_mean_motion_dot": 2.55e-06,
        "meta_mean_motion_ddot": 0,
        "tle_line1": "1 24946U 97051C   25355.14366367  .00000255  00000+0  82654-4 0  9993",
        "tle_line2": "2 24946  86.3863  64.6941 0008038 172.3599 187.7721 14.35042678479559"
      },
      "geometry": {
        "type": "Point",
        "coordinates": [
          -106.24037281771521,
          -68.37679461844448
        ]
      }
    },
    {
      "type": "Feature",
      "properties": {
        "norad_id": 33773,
        "name": "IRIDIUM 33 DEB",
        "group": "iridium-33-debris",
        "lat": 77.85140593413684,
        "lon": -140.0851118779256,
        "alt_km": 731.6901305241208,
        "timestamp": "2025-12-21T09:37:23.039453+00:00",
        "meta_object_name": "IRIDIUM 33 DEB",
        "meta_object_id": "1997-051L",
        "meta_epoch": "2025-12-20T21:30:24.455232",
        "meta_mean_motion": 14.43272653,
        "meta_eccentricity": 0.001312,
        "meta_inclination": 86.4001,
        "meta_ra_of_asc_node": 57.1331,
        "meta_arg_of_pericenter": 122.7867,
        "meta_mean_anomaly": 237.46,
        "meta_ephemeris_type": 0,
        "meta_classification_type": "U",
        "meta_norad_cat_id": 33773,
        "meta_element_set_no": 999,
        "meta_rev_at_epoch": 88465,
        "meta_bstar": 0.00020658,
        "meta_mean_motion_dot": 7.16e-06,
        "meta_mean_motion_ddot": 0,
        "tle_line1": "1 33773U 97051L   25354.89611638  .00000716  00000+0  20658-3 0  9993",
        "tle_line2": "2 33773  86.4001  57.1331 0013120 122.7867 237.4600 14.43272653884654"
      },
      "geometry": {
        "type": "Point",
        "coordinates": [
          -140.0851118779256,
          77.85140593413684
        ]
      }
    },
    {
      "type": "Feature",
      "properties": {
        "norad_id": 33775,
        "name": "IRIDIUM 33 DEB",
        "group": "iridium-33-debris",
        "lat": 50.317138249420054,
        "lon": -138.541271499984,
        "alt_km": 738.3245330863374,
        "timestamp": "2025-12-21T09:37:23.039470+00:00",
        "meta_object_name": "IRIDIUM 33 DEB",
        "meta_object_id": "1997-051N",
        "meta_epoch": "2025-12-21T04:16:38.260704",
        "meta_mean_motion": 14.41484651,
        "meta_eccentricity": 0.0015071,
        "meta_inclination": 86.3627,
        "meta_ra_of_asc_node": 45.9507,
        "meta_arg_of_pericenter": 129.3749,
        "meta_mean_anomaly": 284.9532,
        "meta_ephemeris_type": 0,
        "meta_classification_type": "U",
        "meta_norad_cat_id": 33775,
        "meta_element_set_no": 999,
        "meta_rev_at_epoch": 88262,
        "meta_bstar": 0.00021779,
        "meta_mean_motion_dot": 7.27e-06,
        "meta_mean_motion_ddot": 0,
        "tle_line1": "1 33775U 97051N   25355.17822061  .00000727  00000+0  21779-3 0  9998",
        "tle_line2": "2 33775  86.3627  45.9507 0015071 129.3749 284.9532 14.41484651882625"
      },
      "geometry": {
        "type": "Point",
        "coordinates": [
          -138.541271499984,
          50.317138249420054
        ]
      }
    },
    {
      "type": "Feature",
      "properties": {
        "norad_id": 33776,
        "name": "IRIDIUM 33 DEB",
        "group": "iridium-33-debris",
        "lat": -78.07846909645173,
        "lon": -85.52934162576051,
        "alt_km": 772.8449425506269,
        "timestamp": "2025-12-21T09:37:23.039483+00:00",
        "meta_object_name": "IRIDIUM 33 DEB",
        "meta_object_id": "1997-051P",
        "meta_epoch": "2025-12-21T03:42:50.763744",
        "meta_mean_motion": 14.38248667,
        "meta_eccentricity": 0.0015302,
        "meta_inclination": 86.4034,
        "meta_ra_of_asc_node": 77.2421,
        "meta_arg_of_pericenter": 163.4321,
        "meta_mean_anomaly": 261.019,
        "meta_ephemeris_type": 0,
        "meta_classification_type": "U",
        "meta_norad_cat_id": 33776,
        "meta_element_set_no": 999,
        "meta_rev_at_epoch": 88203,
        "meta_bstar": 0.00020127,
        "meta_mean_motion_dot": 6.32e-06,
        "meta_mean_motion_ddot": 0,
        "tle_line1": "1 33776U 97051P   25355.15475421  .00000632  00000+0  20127-3 0  9992",
        "tle_line2": "2 33776  86.4034  77.2421 0015302 163.4321 261.0190 14.38248667882036"
      },
      "geometry": {
        "type": "Point",
        "coordinates": [
          -85.52934162576051,
          -78.07846909645173
        ]
      }
    },
    {
      "type": "Feature",
      "properties": {
        "norad_id": 33777,
        "name": "IRIDIUM 33 DEB",
        "group": "iridium-33-debris",
        "lat": -47.901844175368176,
        "lon": -144.5436673703183,
        "alt_km": 710.1420624565153,
        "timestamp": "2025-12-21T09:37:23.039496+00:00",
        "meta_object_name": "IRIDIUM 33 DEB",
        "meta_object_id": "1997-051Q",
        "meta_epoch": "2025-12-21T03:37:46.424064",
        "meta_mean_motion": 14.55666378,
        "meta_eccentricity": 0.0005853,
        "meta_inclination": 86.3774,
        "meta_ra_of_asc_node": 31.5442,
        "meta_arg_of_pericenter": 212.4979,
        "meta_mean_anomaly": 147.5869,
        "meta_ephemeris_type": 0,
        "meta_classification_type": "U",
        "meta_norad_cat_id": 33777,
        "meta_element_set_no": 999,
        "meta_rev_at_epoch": 88656,
        "meta_bstar": 0.00051926,
        "meta_mean_motion_dot": 2.288e-05,
        "meta_mean_motion_ddot": 0,
        "tle_line1": "1 33777U 97051Q   25355.15123176  .00002288  00000+0  51926-3 0  9990",
        "tle_line2": "2 33777  86.3774  31.5442 0005853 212.4979 147.5869 14.55666378886562"
      },
      "geometry": {
        "type": "Point",
        "coordinates": [
          -144.5436673703183,
          -47.901844175368176
        ]
      }
    },
    {
      "type": "Feature",
      "properties": {
        "norad_id": 33850,
        "name": "IRIDIUM 33 DEB",
        "group": "iridium-33-debris",
        "lat": 48.30933402921588,
        "lon": -157.66484419762432,
        "alt_km": 737.851916723147,
        "timestamp": "2025-12-21T09:37:23.039508+00:00",
        "meta_object_name": "IRIDIUM 33 DEB",
        "meta_object_id": "1997-051T",
        "meta_epoch": "2025-12-20T20:29:38.135040",
        "meta_mean_motion": 14.42163451,
        "meta_eccentricity": 0.00130082,
        "meta_inclination": 86.3409,
        "meta_ra_of_asc_node": 26.6904,
        "meta_arg_of_pericenter": 136.6945,
        "meta_mean_anomaly": 36.4511,
        "meta_ephemeris_type": 0,
        "meta_classification_type": "U",
        "meta_norad_cat_id": 33850,
        "meta_element_set_no": 999,
        "meta_rev_at_epoch": 88269,
        "meta_bstar": 0.00025829804,
        "meta_mean_motion_dot": 8.7e-06,
        "meta_mean_motion_ddot": 0,
        "tle_line1": "1 33850U 97051T   25354.85391360  .00000870  00000+0  25830-3 0  9990",
        "tle_line2": "2 33850  86.3409  26.6904 0013008 136.6945  36.4511 14.42163451882698"
      },
      "geometry": {
        "type": "Point",
        "coordinates": [
          -157.66484419762432,
          48.30933402921588
        ]
      }
    },
    {
      "type": "Feature",
      "properties": {
        "norad_id": 33853,
        "name": "IRIDIUM 33 DEB",
        "group": "iridium-33-debris",
        "lat": -74.84794771838781,
        "lon": -179.01213914776272,
        "alt_km": 798.3615012968767,
        "timestamp": "2025-12-21T09:37:23.039520+00:00",
        "meta_object_name": "IRIDIUM 33 DEB",
        "meta_object_id": "1997-051W",
        "meta_epoch": "2025-12-20T22:14:35.888928",
        "meta_mean_motion": 13.9910315,
        "meta_eccentricity": 0.0207332,
        "meta_inclination": 85.9999,
        "meta_ra_of_asc_node": 346.2208,
        "meta_arg_of_pericenter": 210.5493,
        "meta_mean_anomaly": 176.3282,
        "meta_ephemeris_type": 0,
        "meta_classification_type": "U",
        "meta_norad_cat_id": 33853,
        "meta_element_set_no": 999,
        "meta_rev_at_epoch": 85460,
        "meta_bstar": 0.0010168,
        "meta_mean_motion_dot": 1.786e-05,
        "meta_mean_motion_ddot": 0,
        "tle_line1": "1 33853U 97051W   25354.92680427  .00001786  00000+0  10168-2 0  9990",
        "tle_line2": "2 33853  85.9999 346.2208 0207332 210.5493 176.3282 13.99103150854603"
      },
      "geometry": {
        "type": "Point",
        "coordinates": [
          -179.01213914776272,
          -74.84794771838781
        ]
      }
    }
  ]
}